METEOR-M2 4             
1 59051U 24039A   25165.77941243  .00000011  00000+0  24406-4 0  9995
2 59051  98.6496 125.8200 0007611 145.5863 214.5809 14.22368334 67030
GOES 19                 
1 60133U 24119A   25165.49102045 -.00000234  00000+0  00000+0 0  9992
2 60133   0.0482 141.6792 0000307  11.2262 211.6978  1.00270425  3270
