[
  {
    "OBJECT_NAME": "METEOR-M2 4",
    "OBJECT_ID": "2024-039A",
    "EPOCH": "2025-06-14T18:42:21.233952",
    "MEAN_MOTION": 14.22368334,
    "ECCENTRICITY": 0.0007611,
    "INCLINATION": 98.6496,
    "RA_OF_ASC_NODE": 125.82,
    "ARG_OF_PERICENTER": 145.5863,
    "MEAN_ANOMALY": 214.5809,
    "EPHEMERIS_TYPE": 0,
    "CLASSIFICATION_TYPE": "U",
    "NORAD_CAT_ID": 59051,
    "ELEMENT_SET_NO": 999,
    "REV_AT_EPOCH": 6703,
    "BSTAR": 2.4406e-05,
    "MEAN_MOTION_DOT": 1.1e-07,
    "MEAN_MOTION_DDOT": 0
  },
  {
    "OBJECT_NAME": "GOES 19",
    "OBJECT_ID": "2024-119A",
    "EPOCH": "2025-06-14T11:47:04.166880",
    "MEAN_MOTION": 1.00270425,
    "ECCENTRICITY": 3.07e-05,
    "INCLINATION": 0.0482,
    "RA_OF_ASC_NODE": 141.6792,
    "ARG_OF_PERICENTER": 11.2262,
    "MEAN_ANOMALY": 211.6978,
    "EPHEMERIS_TYPE": 0,
    "CLASSIFICATION_TYPE": "U",
    "NORAD_CAT_ID": 60133,
    "ELEMENT_SET_NO": 999,
    "REV_AT_EPOCH": 327,
    "BSTAR": 0,
    "MEAN_MOTION_DOT": -2.34e-06,
    "MEAN_MOTION_DDOT": 0
  }
]